{"type": "FeatureCollection", "features": [ {"type": "Feature", "properties": {"norad_id": 35239, "name": "FENGYUN 1C DEB", "group": "fengyun-1c-debris", "lat": 77.11517712943042, "lon": 19.882800678262484, "alt_km": 1042.1396552152091, "timestamp": "2025-12-19T22:41:52.681526+00:00", "meta": {"OBJECT_NAME": "FENGYUN 1C DEB", "OBJECT_ID": "1999-025DQX", "EPOCH": "2025-12-19T16:57:56.692224", "MEAN_MOTION": 13.69231208, "ECCENTRICITY": 0.0229615, "INCLINATION": 99.2654, "RA_OF_ASC_NODE": 154.1251, "ARG_OF_PERICENTER": 352.1975, "MEAN_ANOMALY": 7.5623, "EPHEMERIS_TYPE": 0, "CLASSIFICATION_TYPE": "U", "NORAD_CAT_ID": 35239, "ELEMENT_SET_NO": 999, "REV_AT_EPOCH": 58226, "BSTAR": 0.00090569, "MEAN_MOTION_DOT": 9.02e-06, "MEAN_MOTION_DDOT": 0}, "tle": {"line1": "1 35239U 99025DQX 25353.70690616  .00000902  00000+0  90569-3 0  9992", "line2": "2 35239  99.2654 154.1251 0229615 352.1975   7.5623 13.69231208582266"}}, "geometry": {"type": "Point", "coordinates": [19.882800678262484, 77.11517712943042]}}, {"type": "Feature", "properties": {"norad_id": 35240, "name": "FENGYUN 1C DEB", "group": "fengyun-1c-debris", "lat": -67.50525904687802, "lon": 113.37354608778733, "alt_km": 837.0878259164392, "timestamp": "2025-12-19T22:41:52.681537+00:00", "meta": {"OBJECT_NAME": "FENGYUN 1C DEB", "OBJECT_ID": "1999-025DQY", "EPOCH": "2025-12-18T20:13:37.957152", "MEAN_MOTION": 14.23345086, "ECCENTRICITY": 0.00464497, "INCLINATION": 99.3505, "RA_OF_ASC_NODE": 315.6486, "ARG_OF_PERICENTER": 133.989, "MEAN_ANOMALY": 226.5131, "EPHEMERIS_TYPE": 0, "CLASSIFICATION_TYPE": "U", "NORAD_CAT_ID": 35240, "ELEMENT_SET_NO": 999, "REV_AT_EPOCH": 93251, "BSTAR": 0.0014262232, "MEAN_MOTION_DOT": 3.222e-05, "MEAN_MOTION_DDOT": 0}, "tle": {"line1": "1 35240U 99025DQY 25352.84280043  .00003222  00000+0  14262-2 0  9990", "line2": "2 35240  99.3505 315.6486 0046449 133.9890 226.5131 14.23345086932516"}}, "geometry": {"type": "Point", "coordinates": [113.37354608778733, -67.50525904687802]}}, {"type": "Feature", "properties": {"norad_id": 35241, "name": "FENGYUN 1C DEB", "group": "fengyun-1c-debris", "lat": -2.071953079778149, "lon": -77.06147462080249, "alt_km": 986.7530930278217, "timestamp": "2025-12-19T22:41:52.681547+00:00", "meta": {"OBJECT_NAME": "FENGYUN 1C DEB", "OBJECT_ID": "1999-025DQZ", "EPOCH": "2025-12-11T05:44:22.817472", "MEAN_MOTION": 14.01929609, "ECCENTRICITY": 0.0135502, "INCLINATION": 98.631, "RA_OF_ASC_NODE": 274.3792, "ARG_OF_PERICENTER": 212.8639, "MEAN_ANOMALY": 146.4048, "EPHEMERIS_TYPE": 0, "CLASSIFICATION_TYPE": "U", "NORAD_CAT_ID": 35241, "ELEMENT_SET_NO": 999, "REV_AT_EPOCH": 87585, "BSTAR": 0.002553102, "MEAN_MOTION_DOT": 4.174e-05, "MEAN_MOTION_DDOT": 0}, "tle": {"line1": "1 35241U 99025DQZ 25345.23915298  .00004174  00000+0  25531-2 0  9991", "line2": "2 35241  98.6310 274.3792 0135502 212.8639 146.4048 14.01929609875856"}}, "geometry": {"type": "Point", "coordinates": [-77.06147462080249, -2.071953079778149]}}, {"type": "Feature", "properties": {"norad_id": 35242, "name": "FENGYUN 1C DEB", "group": "fengyun-1c-debris", "lat": -65.4462995321772, "lon": -156.108710331122, "alt_km": 1011.5696964872395, "timestamp": "2025-12-19T22:41:52.681557+00:00", "meta": {"OBJECT_NAME": "FENGYUN 1C DEB", "OBJECT_ID": "1999-025DRA", "EPOCH": "2025-12-09T15:26:53.963232", "MEAN_MOTION": 13.52332883, "ECCENTRICITY": 0.0301834, "INCLINATION": 99.9692, "RA_OF_ASC_NODE": 36.171, "ARG_OF_PERICENTER": 196.4444, "MEAN_ANOMALY": 317.6855, "EPHEMERIS_TYPE": 0, "CLASSIFICATION_TYPE": "U", "NORAD_CAT_ID": 35242, "ELEMENT_SET_NO": 999, "REV_AT_EPOCH": 58085, "BSTAR": 0.0024719, "MEAN_MOTION_DOT": 2.128e-05, "MEAN_MOTION_DDOT": 0}, "tle": {"line1": "1 35242U 99025DRA 25343.64368013  .00002128  00000+0  24719-2 0  9996", "line2": "2 35242  99.9692  36.1710 0301834 196.4444 317.6855 13.52332883580850"}}, "geometry": {"type": "Point", "coordinates": [-156.108710331122, -65.4462995321772]}}, {"type": "Feature", "properties": {"norad_id": 35243, "name": "FENGYUN 1C DEB", "group": "fengyun-1c-debris", "lat": -4.913697874892584, "lon": -107.10299160068487, "alt_km": 580.0141466564455, "timestamp": "2025-12-19T22:41:52.681567+00:00", "meta": {"OBJECT_NAME": "FENGYUN 1C DEB", "OBJECT_ID": "1999-025DRB", "EPOCH": "2025-12-18T11:57:16.599456", "MEAN_MOTION": 14.8717719, "ECCENTRICITY": 0.00657221, "INCLINATION": 98.8806, "RA_OF_ASC_NODE": 72.0495, "ARG_OF_PERICENTER": 238.5919, "MEAN_ANOMALY": 120.8856, "EPHEMERIS_TYPE": 0, "CLASSIFICATION_TYPE": "U", "NORAD_CAT_ID": 35243, "ELEMENT_SET_NO": 999, "REV_AT_EPOCH": 91086, "BSTAR": 0.0018937389, "MEAN_MOTION_DOT": 0.00017688, "MEAN_MOTION_DDOT": 0}, "tle": {"line1": "1 35243U 99025DRB 25352.49810879  .00017688  00000+0  18937-2 0  9994", "line2": "2 35243  98.8806  72.0495 0065722 238.5919 120.8856 14.87177190910863"}}, "geometry": {"type": "Point", "coordinates": [-107.10299160068487, -4.913697874892584]}}, {"type": "Feature", "properties": {"norad_id": 35244, "name": "FENGYUN 1C DEB", "group": "fengyun-1c-debris", "lat": -63.313322950570544, "lon": -164.0371105959583, "alt_km": 893.1985906420023, "timestamp": "2025-12-19T22:41:52.681578+00:00", "meta": {"OBJECT_NAME": "FENGYUN 1C DEB", "OBJECT_ID": "1999-025DRC", "EPOCH": "2025-12-17T20:02:14.462304", "MEAN_MOTION": 14.0663789, "ECCENTRICITY": 0.0072046, "INCLINATION": 98.841, "RA_OF_ASC_NODE": 31.9375, "ARG_OF_PERICENTER": 143.3258, "MEAN_ANOMALY": 217.2873, "EPHEMERIS_TYPE": 0, "CLASSIFICATION_TYPE": "U", "NORAD_CAT_ID": 35244, "ELEMENT_SET_NO": 999, "REV_AT_EPOCH": 65893, "BSTAR": 0.00060777976, "MEAN_MOTION_DOT": 9.89e-06, "MEAN_MOTION_DDOT": 0}, "tle": {"line1": "1 35244U 99025DRC 25351.83488961  .00000989  00000+0  60778-3 0  9992", "line2": "2 35244  98.8410  31.9375 0072046 143.3258 217.2873 14.06637890658938"}}, "geometry": {"type": "Point", "coordinates": [-164.0371105959583, -63.313322950570544]}}, {"type": "Feature", "properties": {"norad_id": 35245, "name": "FENGYUN 1C DEB", "group": "fengyun-1c-debris", "lat": -50.38193449571262, "lon": 90.71606280371617, "alt_km": 832.7375861476658, "timestamp": "2025-12-19T22:41:52.681588+00:00", "meta": {"OBJECT_NAME": "FENGYUN 1C DEB", "OBJECT_ID": "1999-025DRD", "EPOCH": "2025-12-19T04:23:32.034624", "MEAN_MOTION": 14.13126838, "ECCENTRICITY": 0.00598047, "INCLINATION": 99.0852, "RA_OF_ASC_NODE": 78.797, "ARG_OF_PERICENTER": 252.485, "MEAN_ANOMALY": 137.634, "EPHEMERIS_TYPE": 0, "CLASSIFICATION_TYPE": "U", "NORAD_CAT_ID": 35245, "ELEMENT_SET_NO": 999, "REV_AT_EPOCH": 87868, "BSTAR": 0.0014532577, "MEAN_MOTION_DOT": 2.717e-05, "MEAN_MOTION_DDOT": 0}, "tle": {"line1": "1 35245U 99025DRD 25353.18300966  .00002717  00000+0  14533-2 0  9999", "line2": "2 35245  99.0852  78.7970 0059804 252.4850 137.6340 14.13126838878682"}}, "geometry": {"type": "Point", "coordinates": [90.71606280371617, -50.38193449571262]}}, {"type": "Feature", "properties": {"norad_id": 36147, "name": "FENGYUN 1C DEB", "group": "fengyun-1c-debris", "lat": 60.075218297942826, "lon": 46.03532342862462, "alt_km": 1408.2235962103996, "timestamp": "2025-12-19T22:41:52.681599+00:00", "meta": {"OBJECT_NAME": "FENGYUN 1C DEB", "OBJECT_ID": "1999-025DRU", "EPOCH": "2025-12-17T11:31:27.409440", "MEAN_MOTION": 13.46541919, "ECCENTRICITY": 0.04416815, "INCLINATION": 98.5253, "RA_OF_ASC_NODE": 59.0332, "ARG_OF_PERICENTER": 250.7221, "MEAN_ANOMALY": 104.5651, "EPHEMERIS_TYPE": 0, "CLASSIFICATION_TYPE": "U", "NORAD_CAT_ID": 36147, "ELEMENT_SET_NO": 999, "REV_AT_EPOCH": 60061, "BSTAR": 0.0016131915, "MEAN_MOTION_DOT": 1.724e-05, "MEAN_MOTION_DDOT": 0}, "tle": {"line1": "1 36147U 99025DRU 25351.48017835  .00001724  00000+0  16132-2 0  9996", "line2": "2 36147  98.5253  59.0332 0441681 250.7221 104.5651 13.46541919600618"}}, "geometry": {"type": "Point", "coordinates": [46.03532342862462, 60.075218297942826]}}, {"type": "Feature", "properties": {"norad_id": 36148, "name": "FENGYUN 1C DEB", "group": "fengyun-1c-debris", "lat": -71.53910969217034, "lon": -129.62384563130982, "alt_km": 799.1770210305149, "timestamp": "2025-12-19T22:41:52.681609+00:00", "meta": {"OBJECT_NAME": "FENGYUN 1C DEB", "OBJECT_ID": "1999-025DRV", "EPOCH": "2025-12-18T07:09:26.948448", "MEAN_MOTION": 13.84991939, "ECCENTRICITY": 0.0285932, "INCLINATION": 98.4229, "RA_OF_ASC_NODE": 202.5456, "ARG_OF_PERICENTER": 334.7156, "MEAN_ANOMALY": 24.0233, "EPHEMERIS_TYPE": 0, "CLASSIFICATION_TYPE": "U", "NORAD_CAT_ID": 36148, "ELEMENT_SET_NO": 999, "REV_AT_EPOCH": 90321, "BSTAR": 0.0029354958, "MEAN_MOTION_DOT": 4.526e-05, "MEAN_MOTION_DDOT": 0}, "tle": {"line1": "1 36148U 99025DRV 25352.29822857  .00004526  00000+0  29355-2 0  9999", "line2": "2 36148  98.4229 202.5456 0285932 334.7156  24.0233 13.84991939903215"}}, "geometry": {"type": "Point", "coordinates": [-129.62384563130982, -71.53910969217034]}}, {"type": "Feature", "properties": {"norad_id": 36152, "name": "FENGYUN 1C DEB", "group": "fengyun-1c-debris", "lat": -36.192664484595454, "lon": -152.8372419713592, "alt_km": 804.3137890238404, "timestamp": "2025-12-19T22:41:52.681619+00:00", "meta": {"OBJECT_NAME": "FENGYUN 1C DEB", "OBJECT_ID": "1999-025DRZ", "EPOCH": "2025-12-18T08:24:14.818464", "MEAN_MOTION": 14.17273973, "ECCENTRICITY": 0.00557903, "INCLINATION": 98.7554, "RA_OF_ASC_NODE": 32.0659, "ARG_OF_PERICENTER": 196.1632, "MEAN_ANOMALY": 163.7765, "EPHEMERIS_TYPE": 0, "CLASSIFICATION_TYPE": "U", "NORAD_CAT_ID": 36152, "ELEMENT_SET_NO": 999, "REV_AT_EPOCH": 64236, "BSTAR": 0.00095568478, "MEAN_MOTION_DOT": 1.917e-05, "MEAN_MOTION_DDOT": 0}, "tle": {"line1": "1 36152U 99025DRZ 25352.35017151  .00001917  00000+0  95568-3 0  9995", "line2": "2 36152  98.7554  32.0659 0055790 196.1632 163.7765 14.17273973642366"}}, "geometry": {"type": "Point", "coordinates": [-152.8372419713592, -36.192664484595454]}}]}